KSFO 050456Z 29010KT 10SM FEW004 FEW008 14/11 A2999 RMK AO2 SLP155 T01440111
KPAO 050247Z 35018KT 10SM FEW020 18/15 A2996
KOAK 050453Z 30009KT 10SM BKN008 15/12 A3000 RMK AO2 SLP159 T01500117
KSQL 050535Z AUTO 29003KT 10SM FEW013 15/12 A3000 RMK AO2
KHAF 050535Z AUTO 16007KT 1 1/4SM BR OVC003 13/13 A3004 RMK AO2